{"type": "FeatureCollection", "features": [ {"type": "Feature", "properties": {"norad_id": 66849, "name": "STARLINK-36102", "group": "last-30-days", "lat": 42.01676841254566, "lon": 112.08525363170492, "alt_km": 409.08601304397325, "timestamp": "2025-12-26T21:25:51.734461+00:00", "meta": {"OBJECT_NAME": "STARLINK-36102", "OBJECT_ID": "2025-281B", "EPOCH": "2025-12-26T14:00:04.000032", "MEAN_MOTION": 15.50566215, "ECCENTRICITY": 0.00010787, "INCLINATION": 43.0005, "RA_OF_ASC_NODE": 38.6999, "ARG_OF_PERICENTER": 261.0225, "MEAN_ANOMALY": 247.883, "EPHEMERIS_TYPE": 0, "CLASSIFICATION_TYPE": "U", "NORAD_CAT_ID": 66849, "ELEMENT_SET_NO": 999, "REV_AT_EPOCH": 361, "BSTAR": 0.00030390125, "MEAN_MOTION_DOT": 0.00017518, "MEAN_MOTION_DDOT": 0}, "tle": {"line1": "1 66849U 25281B   25360.58337963  .00017518  00000+0  30390-3 0  9990", "line2": "2 66849  43.0005  38.6999 0001078 261.0225 247.8830 15.50566215  3613"}}, "geometry": {"type": "Point", "coordinates": [112.08525363170492, 42.01676841254566]}}, {"type": "Feature", "properties": {"norad_id": 66850, "name": "STARLINK-36105", "group": "last-30-days", "lat": 42.31791377879632, "lon": 114.59476240503847, "alt_km": 408.93072666601074, "timestamp": "2025-12-26T21:25:51.734471+00:00", "meta": {"OBJECT_NAME": "STARLINK-36105", "OBJECT_ID": "2025-281C", "EPOCH": "2025-12-26T14:00:04.000032", "MEAN_MOTION": 15.50496956, "ECCENTRICITY": 0.00010803, "INCLINATION": 43.0002, "RA_OF_ASC_NODE": 38.6952, "ARG_OF_PERICENTER": 259.2671, "MEAN_ANOMALY": 251.5455, "EPHEMERIS_TYPE": 0, "CLASSIFICATION_TYPE": "U", "NORAD_CAT_ID": 66850, "ELEMENT_SET_NO": 999, "REV_AT_EPOCH": 361, "BSTAR": 0.0030742129, "MEAN_MOTION_DOT": 0.00183768, "MEAN_MOTION_DDOT": 0}, "tle": {"line1": "1 66850U 25281C   25360.58337963  .00183768  00000+0  30742-2 0  9993", "line2": "2 66850  43.0002  38.6952 0001080 259.2671 251.5455 15.50496956  3617"}}, "geometry": {"type": "Point", "coordinates": [114.59476240503847, 42.31791377879632]}}, {"type": "Feature", "properties": {"norad_id": 66851, "name": "STARLINK-36094", "group": "last-30-days", "lat": 42.56265913273225, "lon": 117.1094270741865, "alt_km": 408.8431725920018, "timestamp": "2025-12-26T21:25:51.734481+00:00", "meta": {"OBJECT_NAME": "STARLINK-36094", "OBJECT_ID": "2025-281D", "EPOCH": "2025-12-26T14:00:04.000032", "MEAN_MOTION": 15.50578622, "ECCENTRICITY": 0.00010577, "INCLINATION": 43.0003, "RA_OF_ASC_NODE": 38.69, "ARG_OF_PERICENTER": 238.166, "MEAN_ANOMALY": 274.4791, "EPHEMERIS_TYPE": 0, "CLASSIFICATION_TYPE": "U", "NORAD_CAT_ID": 66851, "ELEMENT_SET_NO": 999, "REV_AT_EPOCH": 361, "BSTAR": 0.0007992687, "MEAN_MOTION_DOT": 0.00046827, "MEAN_MOTION_DDOT": 0}, "tle": {"line1": "1 66851U 25281D   25360.58337963  .00046827  00000+0  79927-3 0  9997", "line2": "2 66851  43.0003  38.6900 0001057 238.1660 274.4791 15.50578622  3618"}}, "geometry": {"type": "Point", "coordinates": [117.1094270741865, 42.56265913273225]}}, {"type": "Feature", "properties": {"norad_id": 66852, "name": "STARLINK-35992", "group": "last-30-days", "lat": 42.75373311898797, "lon": 119.67158577973372, "alt_km": 408.33741391195144, "timestamp": "2025-12-26T21:25:51.734508+00:00", "meta": {"OBJECT_NAME": "STARLINK-35992", "OBJECT_ID": "2025-281E", "EPOCH": "2025-12-26T14:00:04.000032", "MEAN_MOTION": 15.50525777, "ECCENTRICITY": 5.904e-05, "INCLINATION": 43.0005, "RA_OF_ASC_NODE": 38.6853, "ARG_OF_PERICENTER": 325.0952, "MEAN_ANOMALY": 189.4644, "EPHEMERIS_TYPE": 0, "CLASSIFICATION_TYPE": "U", "NORAD_CAT_ID": 66852, "ELEMENT_SET_NO": 999, "REV_AT_EPOCH": 361, "BSTAR": 0.0022195051, "MEAN_MOTION_DOT": 0.00131831, "MEAN_MOTION_DDOT": 0}, "tle": {"line1": "1 66852U 25281E   25360.58337963  .00131831  00000+0  22195-2 0  9992", "line2": "2 66852  43.0005  38.6853 0000590 325.0952 189.4644 15.50525777  3614"}}, "geometry": {"type": "Point", "coordinates": [119.67158577973372, 42.75373311898797]}}, {"type": "Feature", "properties": {"norad_id": 66853, "name": "STARLINK-35986", "group": "last-30-days", "lat": 42.888439876270866, "lon": 122.2834633169735, "alt_km": 408.3082465720354, "timestamp": "2025-12-26T21:25:51.734520+00:00", "meta": {"OBJECT_NAME": "STARLINK-35986", "OBJECT_ID": "2025-281F", "EPOCH": "2025-12-26T14:00:04.000032", "MEAN_MOTION": 15.50528401, "ECCENTRICITY": 6.154e-05, "INCLINATION": 43.0005, "RA_OF_ASC_NODE": 38.6804, "ARG_OF_PERICENTER": 328.5607, "MEAN_ANOMALY": 187.9171, "EPHEMERIS_TYPE": 0, "CLASSIFICATION_TYPE": "U", "NORAD_CAT_ID": 66853, "ELEMENT_SET_NO": 999, "REV_AT_EPOCH": 361, "BSTAR": 0.0022125304, "MEAN_MOTION_DOT": 0.00131421, "MEAN_MOTION_DDOT": 0}, "tle": {"line1": "1 66853U 25281F   25360.58337963  .00131421  00000+0  22125-2 0  9991", "line2": "2 66853  43.0005  38.6804 0000615 328.5607 187.9171 15.50528401  3619"}}, "geometry": {"type": "Point", "coordinates": [122.2834633169735, 42.888439876270866]}}, {"type": "Feature", "properties": {"norad_id": 66854, "name": "STARLINK-36087", "group": "last-30-days", "lat": 42.96305023826111, "lon": 124.8939688174553, "alt_km": 408.33963081831916, "timestamp": "2025-12-26T21:25:51.734531+00:00", "meta": {"OBJECT_NAME": "STARLINK-36087", "OBJECT_ID": "2025-281G", "EPOCH": "2025-12-26T14:00:04.000032", "MEAN_MOTION": 15.50525717, "ECCENTRICITY": 5.788e-05, "INCLINATION": 43.0004, "RA_OF_ASC_NODE": 38.6758, "ARG_OF_PERICENTER": 321.6696, "MEAN_ANOMALY": 196.725, "EPHEMERIS_TYPE": 0, "CLASSIFICATION_TYPE": "U", "NORAD_CAT_ID": 66854, "ELEMENT_SET_NO": 999, "REV_AT_EPOCH": 361, "BSTAR": 0.002245376, "MEAN_MOTION_DOT": 0.00133398, "MEAN_MOTION_DDOT": 0}, "tle": {"line1": "1 66854U 25281G   25360.58337963  .00133398  00000+0  22454-2 0  9992", "line2": "2 66854  43.0004  38.6758 0000578 321.6696 196.7250 15.50525717  3610"}}, "geometry": {"type": "Point", "coordinates": [124.8939688174553, 42.96305023826111]}}, {"type": "Feature", "properties": {"norad_id": 66855, "name": "STARLINK-36090", "group": "last-30-days", "lat": 42.9781102160578, "lon": 127.51139496947106, "alt_km": 408.43786977280433, "timestamp": "2025-12-26T21:25:51.734541+00:00", "meta": {"OBJECT_NAME": "STARLINK-36090", "OBJECT_ID": "2025-281H", "EPOCH": "2025-12-26T14:00:04.000032", "MEAN_MOTION": 15.50519816, "ECCENTRICITY": 7.414e-05, "INCLINATION": 43.0004, "RA_OF_ASC_NODE": 38.6714, "ARG_OF_PERICENTER": 320.5159, "MEAN_ANOMALY": 199.7996, "EPHEMERIS_TYPE": 0, "CLASSIFICATION_TYPE": "U", "NORAD_CAT_ID": 66855, "ELEMENT_SET_NO": 999, "REV_AT_EPOCH": 348, "BSTAR": 0.0022522995, "MEAN_MOTION_DOT": 0.00133789, "MEAN_MOTION_DDOT": 0}, "tle": {"line1": "1 66855U 25281H   25360.58337963  .00133789  00000+0  22523-2 0  9994", "line2": "2 66855  43.0004  38.6714 0000741 320.5159 199.7996 15.50519816  3485"}}, "geometry": {"type": "Point", "coordinates": [127.51139496947106, 42.9781102160578]}}, {"type": "Feature", "properties": {"norad_id": 66856, "name": "STARLINK-36072", "group": "last-30-days", "lat": 42.931774846405304, "lon": 130.1807328204059, "alt_km": 408.7223107040445, "timestamp": "2025-12-26T21:25:51.734551+00:00", "meta": {"OBJECT_NAME": "STARLINK-36072", "OBJECT_ID": "2025-281J", "EPOCH": "2025-12-26T14:00:04.000032", "MEAN_MOTION": 15.50512655, "ECCENTRICITY": 8.62e-05, "INCLINATION": 43.0004, "RA_OF_ASC_NODE": 38.6656, "ARG_OF_PERICENTER": 262.1319, "MEAN_ANOMALY": 260.1534, "EPHEMERIS_TYPE": 0, "CLASSIFICATION_TYPE": "U", "NORAD_CAT_ID": 66856, "ELEMENT_SET_NO": 999, "REV_AT_EPOCH": 361, "BSTAR": 0.0023361538, "MEAN_MOTION_DOT": 0.00138838, "MEAN_MOTION_DDOT": 0}, "tle": {"line1": "1 66856U 25281J   25360.58337963  .00138838  00000+0  23362-2 0  9997", "line2": "2 66856  43.0004  38.6656 0000862 262.1319 260.1534 15.50512655  3614"}}, "geometry": {"type": "Point", "coordinates": [130.1807328204059, 42.931774846405304]}}, {"type": "Feature", "properties": {"norad_id": 66857, "name": "STARLINK-36083", "group": "last-30-days", "lat": 42.82550657812404, "lon": 132.8033547875222, "alt_km": 408.8344840924392, "timestamp": "2025-12-26T21:25:51.734564+00:00", "meta": {"OBJECT_NAME": "STARLINK-36083", "OBJECT_ID": "2025-281K", "EPOCH": "2025-12-26T14:00:04.000032", "MEAN_MOTION": 15.50506462, "ECCENTRICITY": 0.00010131, "INCLINATION": 43.0005, "RA_OF_ASC_NODE": 38.6604, "ARG_OF_PERICENTER": 256.8234, "MEAN_ANOMALY": 267.3954, "EPHEMERIS_TYPE": 0, "CLASSIFICATION_TYPE": "U", "NORAD_CAT_ID": 66857, "ELEMENT_SET_NO": 999, "REV_AT_EPOCH": 361, "BSTAR": 0.0023854764, "MEAN_MOTION_DOT": 0.00141799, "MEAN_MOTION_DDOT": 0}, "tle": {"line1": "1 66857U 25281K   25360.58337963  .00141799  00000+0  23855-2 0  9995", "line2": "2 66857  43.0005  38.6604 0001013 256.8234 267.3954 15.50506462  3618"}}, "geometry": {"type": "Point", "coordinates": [132.8033547875222, 42.82550657812404]}}, {"type": "Feature", "properties": {"norad_id": 66858, "name": "STARLINK-35118", "group": "last-30-days", "lat": 42.65963625199951, "lon": 135.40906265803474, "alt_km": 408.93443357615706, "timestamp": "2025-12-26T21:25:51.734574+00:00", "meta": {"OBJECT_NAME": "STARLINK-35118", "OBJECT_ID": "2025-281L", "EPOCH": "2025-12-26T14:00:04.000032", "MEAN_MOTION": 15.50498321, "ECCENTRICITY": 0.000116, "INCLINATION": 43.0004, "RA_OF_ASC_NODE": 38.6557, "ARG_OF_PERICENTER": 252.6672, "MEAN_ANOMALY": 273.4805, "EPHEMERIS_TYPE": 0, "CLASSIFICATION_TYPE": "U", "NORAD_CAT_ID": 66858, "ELEMENT_SET_NO": 999, "REV_AT_EPOCH": 339, "BSTAR": 0.0025573702, "MEAN_MOTION_DOT": 0.00152201, "MEAN_MOTION_DDOT": 0}, "tle": {"line1": "1 66858U 25281L   25360.58337963  .00152201  00000+0  25574-2 0  9996", "line2": "2 66858  43.0004  38.6557 0001160 252.6672 273.4805 15.50498321  3390"}}, "geometry": {"type": "Point", "coordinates": [135.40906265803474, 42.65963625199951]}}]}